[
  {
    "name": "PLEIADES NEO 3",
    "line1": "1 48268U 21034A   26009.28172022  .00000583  00000+0  80751-4 0  9999",
    "line2": "2 48268  97.8942  86.3283 0001281  96.6527 263.4832 14.81672365254121",
    "catNr": 48268
  },
  {
    "name": "PLEIADES NEO 4",
    "line1": "1 49070U 21073E   26009.24794266 -.00000056  00000+0 -54842-6 0  9991",
    "line2": "2 49070  97.8948  86.2905 0001189  99.1605 260.9742 14.81673272237830",
    "catNr": 49070
  }
]